[{"OBJECT_NAME":"AL MUNTHER","OBJECT_ID":"2025-052AG","EPOCH":"2026-03-09T15:29:23.207136","MEAN_MOTION":15.28381521,"ECCENTRICITY":0.0008027,"INCLINATION":97.4001,"RA_OF_ASC_NODE":323.9152,"ARG_OF_PERICENTER":130.7043,"MEAN_ANOMALY":229.4895,"EPHEMERIS_TYPE":0,"CLASSIFICATION_TYPE":"U","NORAD_CAT_ID":63240,"ELEMENT_SET_NO":999,"REV_AT_EPOCH":5479,"BSTAR":0.00065015,"MEAN_MOTION_DOT":0.00017933,"MEAN_MOTION_DDOT":0},{"OBJECT_NAME":"STARLINK-34100","OBJECT_ID":"2025-127R","EPOCH":"2026-03-09T14:57:17.609472","MEAN_MOTION":15.27611959,"ECCENTRICITY":0.00025421,"INCLINATION":43.0043,"RA_OF_ASC_NODE":180.4476,"ARG_OF_PERICENTER":293.059,"MEAN_ANOMALY":66.9994,"EPHEMERIS_TYPE":0,"CLASSIFICATION_TYPE":"U","NORAD_CAT_ID":64385,"ELEMENT_SET_NO":999,"REV_AT_EPOCH":4240,"BSTAR":0.00087619935,"MEAN_MOTION_DOT":0.00023952,"MEAN_MOTION_DDOT":0}]
